ONEWEB-0545             
1 54647U 22166F   25035.41073742  .00000087  00000+0  18017-3 0  9990
2 54647  87.9338 343.1912 0001199  81.4576 278.6694 13.21826034105749
ONEWEB-0580             
1 54648U 22166G   25035.38391494  .00000077  00000+0  15561-3 0  9994
2 54648  87.9344 343.1825 0001464  70.9895 289.1398 13.21824251105783
ONEWEB-0584             
1 54651U 22166K   25035.38235024  .00000058  00000+0  10936-3 0  9994
2 54651  87.9344 343.1869 0001566  67.3862 292.7437 13.21825227105757
ONEWEB-0585             
1 54652U 22166L   25035.40757973  .00000083  00000+0  16845-3 0  9993
2 54652  87.9335 343.1833 0001971  80.3470 279.7887 13.21825030105766
ONEWEB-0586             
1 54653U 22166M   25035.34448621  .00000172  00000+0  38469-3 0  9999
2 54653  87.9341 343.2087 0001640  78.4565 281.6753 13.21823980105757
ONEWEB-0587             
1 54654U 22166N   25035.35395728  .00000106  00000+0  22463-3 0  9994
2 54654  87.9338 343.1583 0002015  82.1712 277.9651 13.21826368105913
